TIANMU-1 07             
1 57399U 23101A   26065.57454230  .00008352  00000+0  29795-3 0  9991
2 57399  97.2728 118.5929 0004609 142.4105 217.7458 15.29118809145964
STARLINK-35465          
1 65871U 25223T   26068.93628151  .00025812  00000+0  88025-3 0  9991
2 65871  53.1599 293.0143 0000969 105.5144 254.5964 15.30212263 24249
