[{"OBJECT_NAME":"TIANMU-1 07","OBJECT_ID":"2023-101A","EPOCH":"2026-03-06T13:47:20.454720","MEAN_MOTION":15.29118809,"ECCENTRICITY":0.00046097,"INCLINATION":97.2728,"RA_OF_ASC_NODE":118.5929,"ARG_OF_PERICENTER":142.4105,"MEAN_ANOMALY":217.7458,"EPHEMERIS_TYPE":0,"CLASSIFICATION_TYPE":"U","NORAD_CAT_ID":57399,"ELEMENT_SET_NO":999,"REV_AT_EPOCH":14596,"BSTAR":0.00029794732,"MEAN_MOTION_DOT":8.352e-5,"MEAN_MOTION_DDOT":0},{"OBJECT_NAME":"STARLINK-35465","OBJECT_ID":"2025-223T","EPOCH":"2026-03-09T22:28:14.722464","MEAN_MOTION":15.30212263,"ECCENTRICITY":9.687e-5,"INCLINATION":53.1599,"RA_OF_ASC_NODE":293.0143,"ARG_OF_PERICENTER":105.5144,"MEAN_ANOMALY":254.5964,"EPHEMERIS_TYPE":0,"CLASSIFICATION_TYPE":"U","NORAD_CAT_ID":65871,"ELEMENT_SET_NO":999,"REV_AT_EPOCH":2424,"BSTAR":0.00088025211,"MEAN_MOTION_DOT":0.00025812,"MEAN_MOTION_DDOT":0}]
